NORAD_CAT_ID,OBJECT_NAME,OBJECT_TYPE,EPOCH,MEAN_MOTION,ECCENTRICITY,INCLINATION,RA_OF_ASC_NODE,ARG_OF_PERICENTER,MEAN_ANOMALY,BSTAR,MEAN_MOTION_DOT,MEAN_MOTION_DDOT,TLE_LINE0,TLE_LINE1,TLE_LINE2,SEMIMAJOR_AXIS,PERIOD,APOGEE,PERIGEE,DECAYED
50178.0,STARLINK-3284,PAYLOAD,2023-08-03 14:57:31,15.08840697,0.0001293,53.2168,189.5011,95.7699,264.3441,2.2675e-06,-2.52e-06,0.0,0 STARLINK-3284,1 50178U 21125Y   23215.62327716 -.00000252  00000-0  22675-5 0  9996,2 50178  53.2168 189.5011 0001293  95.7699 264.3441 15.08840697 92837,6917.878,95.438,540.638,538.849,0.0
50178.0,STARLINK-3284,PAYLOAD,2023-08-04 02:05:13,15.08827203,0.0001512,53.2175,187.4251,114.9252,245.1898,5.0645e-05,5.18e-06,0.0,0 STARLINK-3284,1 50178U 21125Y   23216.08696727  .00000518  00000-0  50645-4 0  9999,2 50178  53.2175 187.4251 0001512 114.9252 245.1898 15.08827203 92900,6917.92,95.438,540.83,538.739,0.0
50178.0,STARLINK-3284,PAYLOAD,2023-08-05 01:56:00,15.08841118,0.0001222,53.2169,182.9624,101.7278,258.3852,2.9783e-05,1.86e-06,0.0,0 STARLINK-3284,1 50178U 21125Y   23217.08056335  .00000186  00000-0  29783-4 0  9995,2 50178  53.2169 182.9624 0001222 101.7278 258.3852 15.08841118 93051,6917.877,95.437,540.587,538.897,0.0
50178.0,STARLINK-3284,PAYLOAD,2023-08-05 08:17:32,15.08848883,0.0001223,53.2169,181.7684,87.3291,272.7841,0.00010976,1.46e-05,0.0,0 STARLINK-3284,1 50178U 21125Y   23217.34551728  .00001460  00000-0  10976-3 0  9999,2 50178  53.2169 181.7684 0001223  87.3291 272.7841 15.08848883 93097,6917.853,95.437,540.564,538.872,0.0
50178.0,STARLINK-3284,PAYLOAD,2023-08-06 03:22:10,15.08846126,0.000127,53.2162,178.1993,82.3698,277.7438,0.00019629,2.838e-05,0.0,0 STARLINK-3284,1 50178U 21125Y   23218.14039887  .00002838  00000-0  19629-3 0  9999,2 50178  53.2162 178.1993 0001270  82.3698 277.7438 15.08846126 93210,6917.862,95.437,540.605,538.848,0.0
50178.0,STARLINK-3284,PAYLOAD,2023-08-06 20:51:25,15.08835835,0.0001725,53.216,174.9289,79.1466,280.972,-7.655e-05,-1.506e-05,0.0,0 STARLINK-3284,1 50178U 21125Y   23218.86904746 -.00001506  00000-0 -76550-4 0  9993,2 50178  53.2160 174.9289 0001725  79.1466 280.9720 15.08835835 93329,6917.893,95.438,540.951,538.565,0.0
50178.0,STARLINK-3284,PAYLOAD,2023-08-07 14:20:40,15.08842047,0.000123,53.2162,171.6606,80.775,279.3381,6.7286e-05,7.83e-06,0.0,0 STARLINK-3284,1 50178U 21125Y   23219.59768525  .00000783  00000-0  67286-4 0  9997,2 50178  53.2162 171.6606 0001230  80.7750 279.3381 15.08842047 93433,6917.874,95.437,540.59,538.888,0.0
50178.0,STARLINK-3284,PAYLOAD,2023-08-08 03:03:44,15.08854966,0.0001251,53.216,169.2817,70.5015,289.6112,0.00025414,3.761e-05,0.0,0 STARLINK-3284,1 50178U 21125Y   23220.12759825  .00003761  00000-0  25414-3 0  9996,2 50178  53.2160 169.2817 0001251  70.5015 289.6112 15.08854966 93510,6917.835,95.437,540.565,538.834,0.0
50178.0,STARLINK-3284,PAYLOAD,2023-08-08 14:11:26,15.08851774,0.0001146,53.2152,167.1987,82.9644,277.1478,0.00020603,2.994e-05,0.0,0 STARLINK-3284,1 50178U 21125Y   23220.59127773  .00002994  00000-0  20603-3 0  9990,2 50178  53.2152 167.1987 0001146  82.9644 277.1478 15.08851774 93582,6917.844,95.437,540.502,538.917,0.0
50178.0,STARLINK-3284,PAYLOAD,2023-08-08 23:43:45,15.08844641,0.0001254,53.2158,165.4157,94.6732,265.4404,0.00029264,4.373e-05,0.0,0 STARLINK-3284,1 50178U 21125Y   23220.98872364  .00004373  00000-0  29264-3 0  9991,2 50178  53.2158 165.4157 0001254  94.6732 265.4404 15.08844641 93647,6917.866,95.437,540.599,538.864,0.0
50178.0,STARLINK-3284,PAYLOAD,2023-08-09 23:34:33,15.08834904,0.0001416,53.2166,160.9555,92.7418,267.3736,-0.00012369,-2.256e-05,0.0,0 STARLINK-3284,1 50178U 21125Y   23221.98232714 -.00002256  00000-0 -12369-3 0  9999,2 50178  53.2166 160.9555 0001416  92.7418 267.3736 15.08834904 93794,6917.896,95.438,540.741,538.781,0.0
50178.0,STARLINK-3284,PAYLOAD,2023-08-11 02:36:06,15.08843484,0.000123,53.2159,155.901,91.9357,268.1776,0.00017916,2.565e-05,0.0,0 STARLINK-3284,1 50178U 21125Y   23223.10840457  .00002565  00000-0  17916-3 0  9998,2 50178  53.2159 155.9010 0001230  91.9357 268.1776 15.08843484 93968,6917.87,95.437,540.586,538.884,0.0
50178.0,STARLINK-3284,PAYLOAD,2023-08-11 18:29:58,15.08832863,0.0002079,53.2139,152.9267,104.9066,255.2156,9.738e-05,1.262e-05,0.0,0 STARLINK-3284,1 50178U 21125Y   23223.77081127  .00001262  00000-0  97380-4 0  9999,2 50178  53.2139 152.9267 0002079 104.9066 255.2156 15.08832863 94061,6917.902,95.438,541.205,538.329,0.0
50178.0,STARLINK-3284,PAYLOAD,2023-08-13 03:53:03,15.08845092,0.0001211,53.217,146.6818,86.0401,274.0729,0.00011121,1.483e-05,0.0,0 STARLINK-3284,1 50178U 21125Y   23225.16184795  .00001483  00000-0  11121-3 0  9992,2 50178  53.2170 146.6818 0001211  86.0401 274.0729 15.08845092 94274,6917.865,95.437,540.568,538.892,0.0
50178.0,STARLINK-3284,PAYLOAD,2023-08-14 00:33:04,15.08839423,0.0001575,53.2161,142.817,77.0591,283.0577,6.476e-05,7.43e-06,0.0,0 STARLINK-3284,1 50178U 21125Y   23226.02297303  .00000743  00000-0  64760-4 0  9994,2 50178  53.2161 142.8170 0001575  77.0591 283.0577 15.08839423 94403,6917.882,95.438,540.837,538.658,0.0
50178.0,STARLINK-3284,PAYLOAD,2023-08-15 03:34:38,15.08844493,0.0001522,53.2169,137.7626,97.5603,262.5562,0.00014352,1.997e-05,0.0,0 STARLINK-3284,1 50178U 21125Y   23227.14905225  .00001997  00000-0  14352-3 0  9990,2 50178  53.2169 137.7626 0001522  97.5603 262.5562 15.08844493 94570,6917.867,95.437,540.785,538.679,0.0
50178.0,STARLINK-3284,PAYLOAD,2023-08-17 03:16:12,15.08845375,0.0002176,53.2192,128.841,76.454,283.6694,0.00011952,1.615e-05,0.0,0 STARLINK-3284,1 50178U 21125Y   23229.13625352  .00001615  00000-0  11952-3 0  9991,2 50178  53.2192 128.8410 0002176  76.4540 283.6694 15.08845375 94873,6917.864,95.437,541.234,538.224,0.0
50178.0,STARLINK-3284,PAYLOAD,2023-08-18 17:25:27,15.08834654,0.000186,53.2181,121.7039,86.2016,273.9189,-1.582e-05,-5.4e-06,0.0,0 STARLINK-3284,1 50178U 21125Y   23230.72601699 -.00000540  00000-0 -15820-4 0  9993,2 50178  53.2181 121.7039 0001860  86.2016 273.9189 15.08834654 95113,6917.897,95.438,541.048,538.475,0.0
50178.0,STARLINK-3284,PAYLOAD,2023-08-19 02:57:46,15.08841054,0.0001316,53.216,119.9196,84.5782,275.536,8.4462e-06,-1.53e-06,0.0,0 STARLINK-3284,1 50178U 21125Y   23231.12345283 -.00000153  00000-0  84462-5 0  9990,2 50178  53.2160 119.9196 0001316  84.5782 275.5360 15.08841054 95177,6917.877,95.437,540.653,538.832,0.0
50178.0,STARLINK-3284,PAYLOAD,2023-08-21 02:39:20,15.08851115,0.000124,53.2159,110.9984,85.8246,274.2888,0.00029416,4.398e-05,0.0,0 STARLINK-3284,1 50178U 21125Y   23233.11065491  .00004398  00000-0  29416-3 0  9991,2 50178  53.2159 110.9984 0001240  85.8246 274.2888 15.08851115 95479,6917.846,95.437,540.569,538.854,0.0
50178.0,STARLINK-3284,PAYLOAD,2023-08-21 12:11:40,15.08832791,0.0001275,53.2152,109.2157,96.4513,263.6624,-1.0812e-05,-4.6e-06,0.0,0 STARLINK-3284,1 50178U 21125Y   23233.50810263 -.00000460  00000-0 -10812-4 0  9998,2 50178  53.2152 109.2157 0001275  96.4513 263.6624 15.08832791 95534,6917.902,95.438,540.649,538.885,0.0
50178.0,STARLINK-3284,PAYLOAD,2023-08-21 20:08:35,15.08845866,0.0001258,53.2151,107.7282,94.3725,265.7411,0.00013749,1.901e-05,0.0,0 STARLINK-3284,1 50178U 21125Y   23233.83929905  .00001901  00000-0  13749-3 0  9998,2 50178  53.2151 107.7282 0001258  94.3725 265.7411 15.08845866 95587,6917.862,95.437,540.598,538.857,0.0
50178.0,STARLINK-3284,PAYLOAD,2023-08-23 02:20:54,15.08859192,0.000128,53.215,102.0773,92.5662,267.5476,0.001,0.00015671,0.0,0 STARLINK-3284,1 50178U 21125Y   23235.09785758  .00015671  00000-0  10000-2 0  9999,2 50178  53.2150 102.0773 0001280  92.5662 267.5476 15.08859192 95773,6917.822,95.436,540.572,538.801,0.0
50178.0,STARLINK-3284,PAYLOAD,2023-08-23 05:31:41,15.08838189,0.0001297,53.215,101.4826,85.6223,274.4917,0.00016349,2.315e-05,0.0,0 STARLINK-3284,1 50178U 21125Y   23235.23034127  .00002315  00000-0  16349-3 0  9996,2 50178  53.2150 101.4826 0001297  85.6223 274.4917 15.08838189 95791,6917.886,95.438,540.648,538.854,0.0
50178.0,STARLINK-3284,PAYLOAD,2023-08-24 16:30:10,15.088518,0.0001185,53.2158,94.9403,90.5548,269.558,0.00087835,0.00013723,0.0,0 STARLINK-3284,1 50178U 21125Y   23236.68762317  .00013723  00000-0  87835-3 0  9998,2 50178  53.2158  94.9403 0001185  90.5548 269.5580 15.08851800 96019,6917.844,95.437,540.529,538.89,0.0
50178.0,STARLINK-3284,PAYLOAD,2023-08-25 00:27:06,15.0885825,0.0001252,53.216,93.4534,81.6845,278.4289,0.00085439,0.00013343,0.0,0 STARLINK-3284,1 50178U 21125Y   23237.01882053  .00013343  00000-0  85439-3 0  9992,2 50178  53.2160  93.4534 0001252  81.6845 278.4289 15.08858250 96591,6917.825,95.436,540.556,538.823,0.0
50178.0,STARLINK-3284,PAYLOAD,2023-08-25 19:31:43,15.08843584,0.0001304,53.2163,89.8852,86.3706,273.7436,0.00023902,3.519e-05,0.0,0 STARLINK-3284,1 50178U 21125Y   23237.81370236  .00003519  00000-0  23902-3 0  9996,2 50178  53.2163  89.8852 0001304  86.3706 273.7436 15.08843584 96183,6917.869,95.437,540.637,538.832,0.0
50178.0,STARLINK-3284,PAYLOAD,2023-08-25 21:07:07,15.08844921,0.0001313,53.2163,89.588,86.876,273.2382,0.00030164,4.517e-05,0.0,0 STARLINK-3284,1 50178U 21125Y   23237.87994215  .00004517  00000-0  30164-3 0  9998,2 50178  53.2163  89.5880 0001313  86.8760 273.2382 15.08844921 96727,6917.865,95.437,540.639,538.822,0.0
50178.0,STARLINK-3284,PAYLOAD,2023-08-26 14:36:21,15.08837986,0.0001322,53.217,86.3178,89.6914,270.4229,4.921e-05,4.95e-06,0.0,0 STARLINK-3284,1 50178U 21125Y   23238.60858499  .00000495  00000-0  49210-4 0  9997,2 50178  53.2170  86.3178 0001322  89.6914 270.4229 15.08837986 96836,6917.887,95.438,540.666,538.837,0.0
50178.0,STARLINK-3284,PAYLOAD,2023-08-26 19:22:31,15.08842794,0.000143,53.2168,85.4259,96.1547,263.9608,7.7415e-05,9.44e-06,0.0,0 STARLINK-3284,1 50178U 21125Y   23238.80730360  .00000944  00000-0  77415-4 0  9992,2 50178  53.2168  85.4259 0001430  96.1547 263.9608 15.08842794 96862,6917.872,95.437,540.726,538.748,0.0
